{
  "type": "FeatureCollection",
  "features": [
    {
      "type": "Feature",
      "properties": {
        "source": "vẽ tay từ ảnh vệ tinh – thôn Lệ Sơn Nam"
      },
      "geometry": {
        "type": "Polygon",
        "coordinates": [
          [
            [
              108.17898,
              15.959343
            ],
            [
              108.179036,
              15.959182
            ],
            [
              108.179121,
              15.959205
            ],
            [
              108.179073,
              15.959367
            ],
            [
              108.17898,
              15.959343
            ]
          ]
        ]
      }
    },
    {
      "type": "Feature",
      "properties": {
        "source": "vẽ tay từ ảnh vệ tinh – thôn Lệ Sơn Nam"
      },
      "geometry": {
        "type": "Polygon",
        "coordinates": [
          [
            [
              108.178981,
              15.95916
            ],
            [
              108.179031,
              15.959184
            ],
            [
              108.178979,
              15.959341
            ],
            [
              108.178917,
              15.959325
            ],
            [
              108.178981,
              15.95916
            ]
          ]
        ]
      }
    },
    {
      "type": "Feature",
      "properties": {
        "source": "vẽ tay từ ảnh vệ tinh – thôn Lệ Sơn Nam"
      },
      "geometry": {
        "type": "Polygon",
        "coordinates": [
          [
            [
              108.179175,
              15.959098
            ],
            [
              108.179168,
              15.959006
            ],
            [
              108.179283,
              15.958969
            ],
            [
              108.17933,
              15.959049
            ],
            [
              108.179175,
              15.959098
            ]
          ]
        ]
      }
    },
    {
      "type": "Feature",
      "properties": {
        "source": "vẽ tay từ ảnh vệ tinh – thôn Lệ Sơn Nam"
      },
      "geometry": {
        "type": "Polygon",
        "coordinates": [
          [
            [
              108.179078,
              15.959098
            ],
            [
              108.179134,
              15.958924
            ],
            [
              108.179187,
              15.958933
            ],
            [
              108.179132,
              15.959118
            ],
            [
              108.179078,
              15.959098
            ]
          ]
        ]
      }
    },
    {
      "type": "Feature",
      "properties": {
        "source": "vẽ tay từ ảnh vệ tinh – thôn Lệ Sơn Nam"
      },
      "geometry": {
        "type": "Polygon",
        "coordinates": [
          [
            [
              108.179014,
              15.959089
            ],
            [
              108.179075,
              15.959105
            ],
            [
              108.179132,
              15.958917
            ],
            [
              108.179074,
              15.958917
            ],
            [
              108.179014,
              15.959089
            ]
          ]
        ]
      }
    },
    {
      "type": "Feature",
      "properties": {
        "source": "vẽ tay từ ảnh vệ tinh – thôn Lệ Sơn Nam"
      },
      "geometry": {
        "type": "Polygon",
        "coordinates": [
          [
            [
              108.178745,
              15.959133
            ],
            [
              108.178916,
              15.959187
            ],
            [
              108.178934,
              15.959153
            ],
            [
              108.178768,
              15.959083
            ],
            [
              108.178745,
              15.959133
            ]
          ]
        ]
      }
    },
    {
      "type": "Feature",
      "properties": {
        "source": "vẽ tay từ ảnh vệ tinh – thôn Lệ Sơn Nam"
      },
      "geometry": {
        "type": "Polygon",
        "coordinates": [
          [
            [
              108.17926,
              15.959247
            ],
            [
              108.179313,
              15.95926
            ],
            [
              108.179247,
              15.959456
            ],
            [
              108.179193,
              15.959441
            ],
            [
              108.17926,
              15.959247
            ]
          ]
        ]
      }
    },
    {
      "type": "Feature",
      "properties": {
        "source": "vẽ tay từ ảnh vệ tinh – thôn Lệ Sơn Nam"
      },
      "geometry": {
        "type": "Polygon",
        "coordinates": [
          [
            [
              108.179326,
              15.959477
            ],
            [
              108.179368,
              15.959327
            ],
            [
              108.179388,
              15.959267
            ],
            [
              108.179452,
              15.959292
            ],
            [
              108.179384,
              15.959488
            ],
            [
              108.179326,
              15.959477
            ]
          ]
        ]
      }
    },
    {
      "type": "Feature",
      "properties": {
        "source": "vẽ tay từ ảnh vệ tinh – thôn Lệ Sơn Nam"
      },
      "geometry": {
        "type": "Polygon",
        "coordinates": [
          [
            [
              108.178656,
              15.959466
            ],
            [
              108.178599,
              15.959368
            ],
            [
              108.178638,
              15.959258
            ],
            [
              108.179107,
              15.959386
            ],
            [
              108.179044,
              15.959564
            ],
            [
              108.178656,
              15.959466
            ]
          ]
        ]
      }
    },
    {
      "type": "Feature",
      "properties": {
        "source": "vẽ tay từ ảnh vệ tinh – thôn Lệ Sơn Nam"
      },
      "geometry": {
        "type": "Polygon",
        "coordinates": [
          [
            [
              108.178643,
              15.959516
            ],
            [
              108.178668,
              15.959467
            ],
            [
              108.178902,
              15.959533
            ],
            [
              108.178871,
              15.959578
            ],
            [
              108.178658,
              15.959525
            ],
            [
              108.178643,
              15.959516
            ]
          ]
        ]
      }
    },
    {
      "type": "Feature",
      "properties": {
        "source": "vẽ tay từ ảnh vệ tinh – thôn Lệ Sơn Nam"
      },
      "geometry": {
        "type": "Polygon",
        "coordinates": [
          [
            [
              108.178645,
              15.959146
            ],
            [
              108.178445,
              15.959038
            ],
            [
              108.178472,
              15.958997
            ],
            [
              108.178668,
              15.959102
            ],
            [
              108.178645,
              15.959146
            ]
          ]
        ]
      }
    },
    {
      "type": "Feature",
      "properties": {
        "source": "vẽ tay từ ảnh vệ tinh – thôn Lệ Sơn Nam"
      },
      "geometry": {
        "type": "Polygon",
        "coordinates": [
          [
            [
              108.17885,
              15.959087
            ],
            [
              108.178803,
              15.958998
            ],
            [
              108.178901,
              15.958944
            ],
            [
              108.178969,
              15.959018
            ],
            [
              108.17885,
              15.959087
            ]
          ]
        ]
      }
    },
    {
      "type": "Feature",
      "properties": {
        "source": "vẽ tay từ ảnh vệ tinh – thôn Lệ Sơn Nam"
      },
      "geometry": {
        "type": "Polygon",
        "coordinates": [
          [
            [
              108.178855,
              15.958891
            ],
            [
              108.179019,
              15.95894
            ],
            [
              108.179032,
              15.958896
            ],
            [
              108.178881,
              15.958837
            ],
            [
              108.178862,
              15.958878
            ],
            [
              108.178855,
              15.958891
            ]
          ]
        ]
      }
    },
    {
      "type": "Feature",
      "properties": {
        "source": "vẽ tay từ ảnh vệ tinh – thôn Lệ Sơn Nam"
      },
      "geometry": {
        "type": "Polygon",
        "coordinates": [
          [
            [
              108.178641,
              15.958976
            ],
            [
              108.178507,
              15.958882
            ],
            [
              108.178567,
              15.958815
            ],
            [
              108.17863,
              15.958864
            ],
            [
              108.17867,
              15.958846
            ],
            [
              108.178728,
              15.958897
            ],
            [
              108.178641,
              15.958976
            ]
          ]
        ]
      }
    },
    {
      "type": "Feature",
      "properties": {
        "source": "vẽ tay từ ảnh vệ tinh – thôn Lệ Sơn Nam"
      },
      "geometry": {
        "type": "Polygon",
        "coordinates": [
          [
            [
              108.178737,
              15.958839
            ],
            [
              108.178595,
              15.958694
            ],
            [
              108.178669,
              15.95863
            ],
            [
              108.178822,
              15.958771
            ],
            [
              108.178737,
              15.958839
            ]
          ]
        ]
      }
    },
    {
      "type": "Feature",
      "properties": {
        "source": "vẽ tay từ ảnh vệ tinh – thôn Lệ Sơn Nam"
      },
      "geometry": {
        "type": "Polygon",
        "coordinates": [
          [
            [
              108.17893,
              15.958677
            ],
            [
              108.178822,
              15.95858
            ],
            [
              108.178871,
              15.958525
            ],
            [
              108.178976,
              15.958636
            ],
            [
              108.17893,
              15.958677
            ]
          ]
        ]
      }
    },
    {
      "type": "Feature",
      "properties": {
        "source": "vẽ tay từ ảnh vệ tinh – thôn Lệ Sơn Nam"
      },
      "geometry": {
        "type": "Polygon",
        "coordinates": [
          [
            [
              108.178975,
              15.958801
            ],
            [
              108.179205,
              15.958866
            ],
            [
              108.179272,
              15.95873
            ],
            [
              108.179036,
              15.958657
            ],
            [
              108.178975,
              15.958801
            ]
          ]
        ]
      }
    },
    {
      "type": "Feature",
      "properties": {
        "source": "vẽ tay từ ảnh vệ tinh – thôn Lệ Sơn Nam"
      },
      "geometry": {
        "type": "Polygon",
        "coordinates": [
          [
            [
              108.179183,
              15.958541
            ],
            [
              108.179161,
              15.958576
            ],
            [
              108.17912,
              15.958561
            ],
            [
              108.179039,
              15.958657
            ],
            [
              108.17929,
              15.958737
            ],
            [
              108.179322,
              15.958637
            ],
            [
              108.179294,
              15.958572
            ],
            [
              108.179183,
              15.958541
            ]
          ]
        ]
      }
    },
    {
      "type": "Feature",
      "properties": {
        "source": "vẽ tay từ ảnh vệ tinh – thôn Lệ Sơn Nam"
      },
      "geometry": {
        "type": "Polygon",
        "coordinates": [
          [
            [
              108.177969,
              15.960839
            ],
            [
              108.178006,
              15.960828
            ],
            [
              108.177955,
              15.960657
            ],
            [
              108.177914,
              15.960665
            ],
            [
              108.177969,
              15.960839
            ]
          ]
        ]
      }
    },
    {
      "type": "Feature",
      "properties": {
        "source": "vẽ tay từ ảnh vệ tinh – thôn Lệ Sơn Nam"
      },
      "geometry": {
        "type": "Polygon",
        "coordinates": [
          [
            [
              108.177709,
              15.960277
            ],
            [
              108.17789,
              15.960247
            ],
            [
              108.17787,
              15.960165
            ],
            [
              108.177682,
              15.960197
            ],
            [
              108.177709,
              15.960277
            ]
          ]
        ]
      }
    },
    {
      "type": "Feature",
      "properties": {
        "source": "vẽ tay từ ảnh vệ tinh – thôn Lệ Sơn Nam"
      },
      "geometry": {
        "type": "Polygon",
        "coordinates": [
          [
            [
              108.17767,
              15.960198
            ],
            [
              108.177654,
              15.960127
            ],
            [
              108.177828,
              15.960109
            ],
            [
              108.177836,
              15.960166
            ],
            [
              108.17767,
              15.960198
            ]
          ]
        ]
      }
    },
    {
      "type": "Feature",
      "properties": {
        "source": "vẽ tay từ ảnh vệ tinh – thôn Lệ Sơn Nam"
      },
      "geometry": {
        "type": "Polygon",
        "coordinates": [
          [
            [
              108.1776,
              15.96014
            ],
            [
              108.177847,
              15.960105
            ],
            [
              108.177828,
              15.960042
            ],
            [
              108.177589,
              15.960081
            ],
            [
              108.1776,
              15.96014
            ]
          ]
        ]
      }
    },
    {
      "type": "Feature",
      "properties": {
        "source": "vẽ tay từ ảnh vệ tinh – thôn Lệ Sơn Nam"
      },
      "geometry": {
        "type": "Polygon",
        "coordinates": [
          [
            [
              108.177491,
              15.959564
            ],
            [
              108.177736,
              15.959508
            ],
            [
              108.177711,
              15.959377
            ],
            [
              108.177398,
              15.959438
            ],
            [
              108.177415,
              15.959537
            ],
            [
              108.177491,
              15.959564
            ]
          ]
        ]
      }
    },
    {
      "type": "Feature",
      "properties": {
        "source": "vẽ tay từ ảnh vệ tinh – thôn Lệ Sơn Nam"
      },
      "geometry": {
        "type": "Polygon",
        "coordinates": [
          [
            [
              108.177927,
              15.959854
            ],
            [
              108.177914,
              15.959801
            ],
            [
              108.178127,
              15.959764
            ],
            [
              108.178136,
              15.959836
            ],
            [
              108.177927,
              15.959854
            ]
          ]
        ]
      }
    },
    {
      "type": "Feature",
      "properties": {
        "source": "vẽ tay từ ảnh vệ tinh – thôn Lệ Sơn Nam"
      },
      "geometry": {
        "type": "Polygon",
        "coordinates": [
          [
            [
              108.177454,
              15.95932
            ],
            [
              108.177446,
              15.959283
            ],
            [
              108.177647,
              15.959234
            ],
            [
              108.177667,
              15.959274
            ],
            [
              108.177454,
              15.95932
            ]
          ]
        ]
      }
    },
    {
      "type": "Feature",
      "properties": {
        "source": "vẽ tay từ ảnh vệ tinh – thôn Lệ Sơn Nam"
      },
      "geometry": {
        "type": "Polygon",
        "coordinates": [
          [
            [
              108.177438,
              15.959225
            ],
            [
              108.177613,
              15.959195
            ],
            [
              108.177604,
              15.959154
            ],
            [
              108.177675,
              15.959141
            ],
            [
              108.177662,
              15.959051
            ],
            [
              108.177428,
              15.95908
            ],
            [
              108.177438,
              15.959225
            ]
          ]
        ]
      }
    },
    {
      "type": "Feature",
      "properties": {
        "source": "vẽ tay từ ảnh vệ tinh – thôn Lệ Sơn Nam"
      },
      "geometry": {
        "type": "Polygon",
        "coordinates": [
          [
            [
              108.177332,
              15.958539
            ],
            [
              108.177552,
              15.95849
            ],
            [
              108.177544,
              15.958438
            ],
            [
              108.177329,
              15.95847
            ],
            [
              108.177332,
              15.958539
            ]
          ]
        ]
      }
    },
    {
      "type": "Feature",
      "properties": {
        "source": "vẽ tay từ ảnh vệ tinh – thôn Lệ Sơn Nam"
      },
      "geometry": {
        "type": "Polygon",
        "coordinates": [
          [
            [
              108.177325,
              15.958473
            ],
            [
              108.177324,
              15.958378
            ],
            [
              108.177516,
              15.958349
            ],
            [
              108.177538,
              15.958437
            ],
            [
              108.177325,
              15.958473
            ]
          ]
        ]
      }
    },
    {
      "type": "Feature",
      "properties": {
        "source": "vẽ tay từ ảnh vệ tinh – thôn Lệ Sơn Nam"
      },
      "geometry": {
        "type": "Polygon",
        "coordinates": [
          [
            [
              108.176738,
              15.959483
            ],
            [
              108.176693,
              15.95932
            ],
            [
              108.176743,
              15.95931
            ],
            [
              108.176787,
              15.959467
            ],
            [
              108.176738,
              15.959483
            ]
          ]
        ]
      }
    },
    {
      "type": "Feature",
      "properties": {
        "source": "vẽ tay từ ảnh vệ tinh – thôn Lệ Sơn Nam"
      },
      "geometry": {
        "type": "Polygon",
        "coordinates": [
          [
            [
              108.176802,
              15.959466
            ],
            [
              108.176747,
              15.959305
            ],
            [
              108.176809,
              15.959287
            ],
            [
              108.17685,
              15.959461
            ],
            [
              108.176802,
              15.959466
            ]
          ]
        ]
      }
    },
    {
      "type": "Feature",
      "properties": {
        "source": "vẽ tay từ ảnh vệ tinh – thôn Lệ Sơn Nam"
      },
      "geometry": {
        "type": "Polygon",
        "coordinates": [
          [
            [
              108.176866,
              15.95945
            ],
            [
              108.176912,
              15.95944
            ],
            [
              108.176868,
              15.959272
            ],
            [
              108.17682,
              15.959289
            ],
            [
              108.176866,
              15.95945
            ]
          ]
        ]
      }
    },
    {
      "type": "Feature",
      "properties": {
        "source": "vẽ tay từ ảnh vệ tinh – thôn Lệ Sơn Nam"
      },
      "geometry": {
        "type": "Polygon",
        "coordinates": [
          [
            [
              108.176667,
              15.95931
            ],
            [
              108.176613,
              15.959114
            ],
            [
              108.176685,
              15.9591
            ],
            [
              108.176726,
              15.959298
            ],
            [
              108.176667,
              15.95931
            ]
          ]
        ]
      }
    },
    {
      "type": "Feature",
      "properties": {
        "source": "vẽ tay từ ảnh vệ tinh – thôn Lệ Sơn Nam"
      },
      "geometry": {
        "type": "Polygon",
        "coordinates": [
          [
            [
              108.176743,
              15.959296
            ],
            [
              108.176798,
              15.959284
            ],
            [
              108.176742,
              15.959095
            ],
            [
              108.176703,
              15.959137
            ],
            [
              108.176743,
              15.959296
            ]
          ]
        ]
      }
    },
    {
      "type": "Feature",
      "properties": {
        "source": "vẽ tay từ ảnh vệ tinh – thôn Lệ Sơn Nam"
      },
      "geometry": {
        "type": "Polygon",
        "coordinates": [
          [
            [
              108.176869,
              15.959265
            ],
            [
              108.17682,
              15.95906
            ],
            [
              108.176879,
              15.959047
            ],
            [
              108.176931,
              15.959247
            ],
            [
              108.176869,
              15.959265
            ]
          ]
        ]
      }
    },
    {
      "type": "Feature",
      "properties": {
        "source": "vẽ tay từ ảnh vệ tinh – thôn Lệ Sơn Nam"
      },
      "geometry": {
        "type": "Polygon",
        "coordinates": [
          [
            [
              108.176986,
              15.959235
            ],
            [
              108.176928,
              15.959033
            ],
            [
              108.176995,
              15.959012
            ],
            [
              108.177061,
              15.959217
            ],
            [
              108.176986,
              15.959235
            ]
          ]
        ]
      }
    },
    {
      "type": "Feature",
      "properties": {
        "source": "vẽ tay từ ảnh vệ tinh – thôn Lệ Sơn Nam"
      },
      "geometry": {
        "type": "Polygon",
        "coordinates": [
          [
            [
              108.176923,
              15.959427
            ],
            [
              108.17688,
              15.959278
            ],
            [
              108.17695,
              15.959252
            ],
            [
              108.176997,
              15.959416
            ],
            [
              108.176923,
              15.959427
            ]
          ]
        ]
      }
    },
    {
      "type": "Feature",
      "properties": {
        "source": "vẽ tay từ ảnh vệ tinh – thôn Lệ Sơn Nam"
      },
      "geometry": {
        "type": "Polygon",
        "coordinates": [
          [
            [
              108.176805,
              15.959283
            ],
            [
              108.176748,
              15.959089
            ],
            [
              108.176806,
              15.95907
            ],
            [
              108.176868,
              15.959269
            ],
            [
              108.176805,
              15.959283
            ]
          ]
        ]
      }
    },
    {
      "type": "Feature",
      "properties": {
        "source": "vẽ tay từ ảnh vệ tinh – thôn Lệ Sơn Nam"
      },
      "geometry": {
        "type": "Polygon",
        "coordinates": [
          [
            [
              108.175509,
              15.960193
            ],
            [
              108.175457,
              15.959996
            ],
            [
              108.1757,
              15.959929
            ],
            [
              108.17576,
              15.960126
            ],
            [
              108.175509,
              15.960193
            ]
          ]
        ]
      }
    },
    {
      "type": "Feature",
      "properties": {
        "source": "vẽ tay từ ảnh vệ tinh – thôn Lệ Sơn Nam"
      },
      "geometry": {
        "type": "Polygon",
        "coordinates": [
          [
            [
              108.175942,
              15.960072
            ],
            [
              108.175885,
              15.959857
            ],
            [
              108.175957,
              15.959851
            ],
            [
              108.176012,
              15.960055
            ],
            [
              108.175942,
              15.960072
            ]
          ]
        ]
      }
    },
    {
      "type": "Feature",
      "properties": {
        "source": "vẽ tay từ ảnh vệ tinh – thôn Lệ Sơn Nam"
      },
      "geometry": {
        "type": "Polygon",
        "coordinates": [
          [
            [
              108.175959,
              15.960316
            ],
            [
              108.175886,
              15.960096
            ],
            [
              108.175961,
              15.960095
            ],
            [
              108.176022,
              15.960287
            ],
            [
              108.175963,
              15.960303
            ],
            [
              108.175959,
              15.960316
            ]
          ]
        ]
      }
    },
    {
      "type": "Feature",
      "properties": {
        "source": "vẽ tay từ ảnh vệ tinh – thôn Lệ Sơn Nam"
      },
      "geometry": {
        "type": "Polygon",
        "coordinates": [
          [
            [
              108.175787,
              15.959551
            ],
            [
              108.175729,
              15.959347
            ],
            [
              108.175799,
              15.959334
            ],
            [
              108.175857,
              15.959536
            ],
            [
              108.175787,
              15.959551
            ]
          ]
        ]
      }
    },
    {
      "type": "Feature",
      "properties": {
        "source": "vẽ tay từ ảnh vệ tinh – thôn Lệ Sơn Nam"
      },
      "geometry": {
        "type": "Polygon",
        "coordinates": [
          [
            [
              108.175596,
              15.9596
            ],
            [
              108.175664,
              15.959586
            ],
            [
              108.175606,
              15.959376
            ],
            [
              108.175539,
              15.959401
            ],
            [
              108.175596,
              15.9596
            ]
          ]
        ]
      }
    },
    {
      "type": "Feature",
      "properties": {
        "source": "vẽ tay từ ảnh vệ tinh – thôn Lệ Sơn Nam"
      },
      "geometry": {
        "type": "Polygon",
        "coordinates": [
          [
            [
              108.175831,
              15.958986
            ],
            [
              108.175764,
              15.958754
            ],
            [
              108.175847,
              15.958762
            ],
            [
              108.175901,
              15.958968
            ],
            [
              108.175831,
              15.958986
            ]
          ]
        ]
      }
    },
    {
      "type": "Feature",
      "properties": {
        "source": "vẽ tay từ ảnh vệ tinh – thôn Lệ Sơn Nam"
      },
      "geometry": {
        "type": "Polygon",
        "coordinates": [
          [
            [
              108.175643,
              15.959049
            ],
            [
              108.175582,
              15.958831
            ],
            [
              108.175653,
              15.958816
            ],
            [
              108.175714,
              15.959021
            ],
            [
              108.175643,
              15.959049
            ]
          ]
        ]
      }
    },
    {
      "type": "Feature",
      "properties": {
        "source": "vẽ tay từ ảnh vệ tinh – thôn Lệ Sơn Nam"
      },
      "geometry": {
        "type": "Polygon",
        "coordinates": [
          [
            [
              108.175511,
              15.959079
            ],
            [
              108.17544,
              15.958878
            ],
            [
              108.175517,
              15.958852
            ],
            [
              108.175587,
              15.959048
            ],
            [
              108.175511,
              15.959079
            ]
          ]
        ]
      }
    },
    {
      "type": "Feature",
      "properties": {
        "source": "vẽ tay từ ảnh vệ tinh – thôn Lệ Sơn Nam"
      },
      "geometry": {
        "type": "Polygon",
        "coordinates": [
          [
            [
              108.175977,
              15.95855
            ],
            [
              108.17596,
              15.958485
            ],
            [
              108.176176,
              15.958425
            ],
            [
              108.176192,
              15.958492
            ],
            [
              108.175977,
              15.95855
            ]
          ]
        ]
      }
    },
    {
      "type": "Feature",
      "properties": {
        "source": "vẽ tay từ ảnh vệ tinh – thôn Lệ Sơn Nam"
      },
      "geometry": {
        "type": "Polygon",
        "coordinates": [
          [
            [
              108.176495,
              15.958351
            ],
            [
              108.176465,
              15.958274
            ],
            [
              108.176699,
              15.958229
            ],
            [
              108.176715,
              15.958296
            ],
            [
              108.176495,
              15.958351
            ]
          ]
        ]
      }
    },
    {
      "type": "Feature",
      "properties": {
        "source": "vẽ tay từ ảnh vệ tinh – thôn Lệ Sơn Nam"
      },
      "geometry": {
        "type": "Polygon",
        "coordinates": [
          [
            [
              108.177597,
              15.958076
            ],
            [
              108.177564,
              15.95799
            ],
            [
              108.177803,
              15.957921
            ],
            [
              108.177821,
              15.958023
            ],
            [
              108.177597,
              15.958076
            ]
          ]
        ]
      }
    },
    {
      "type": "Feature",
      "properties": {
        "source": "vẽ tay từ ảnh vệ tinh – thôn Lệ Sơn Nam"
      },
      "geometry": {
        "type": "Polygon",
        "coordinates": [
          [
            [
              108.177505,
              15.957763
            ],
            [
              108.177486,
              15.957725
            ],
            [
              108.177748,
              15.957639
            ],
            [
              108.177768,
              15.957707
            ],
            [
              108.177505,
              15.957763
            ]
          ]
        ]
      }
    },
    {
      "type": "Feature",
      "properties": {
        "source": "vẽ tay từ ảnh vệ tinh – thôn Lệ Sơn Nam"
      },
      "geometry": {
        "type": "Polygon",
        "coordinates": [
          [
            [
              108.176809,
              15.958733
            ],
            [
              108.176752,
              15.958523
            ],
            [
              108.176803,
              15.95851
            ],
            [
              108.176869,
              15.958712
            ],
            [
              108.176809,
              15.958733
            ]
          ]
        ]
      }
    },
    {
      "type": "Feature",
      "properties": {
        "source": "vẽ tay từ ảnh vệ tinh – thôn Lệ Sơn Nam"
      },
      "geometry": {
        "type": "Polygon",
        "coordinates": [
          [
            [
              108.176739,
              15.958752
            ],
            [
              108.176675,
              15.958541
            ],
            [
              108.176748,
              15.958527
            ],
            [
              108.176806,
              15.958737
            ],
            [
              108.176739,
              15.958752
            ]
          ]
        ]
      }
    },
    {
      "type": "Feature",
      "properties": {
        "source": "vẽ tay từ ảnh vệ tinh – thôn Lệ Sơn Nam"
      },
      "geometry": {
        "type": "Polygon",
        "coordinates": [
          [
            [
              108.176356,
              15.959101
            ],
            [
              108.176282,
              15.958875
            ],
            [
              108.176361,
              15.95886
            ],
            [
              108.176432,
              15.959086
            ],
            [
              108.176356,
              15.959101
            ]
          ]
        ]
      }
    },
    {
      "type": "Feature",
      "properties": {
        "source": "vẽ tay từ ảnh vệ tinh – thôn Lệ Sơn Nam"
      },
      "geometry": {
        "type": "Polygon",
        "coordinates": [
          [
            [
              108.177569,
              15.959732
            ],
            [
              108.177549,
              15.959666
            ],
            [
              108.177766,
              15.959627
            ],
            [
              108.177781,
              15.95969
            ],
            [
              108.177569,
              15.959732
            ]
          ]
        ]
      }
    },
    {
      "type": "Feature",
      "properties": {
        "source": "vẽ tay từ ảnh vệ tinh – thôn Lệ Sơn Nam"
      },
      "geometry": {
        "type": "Polygon",
        "coordinates": [
          [
            [
              108.177585,
              15.959804
            ],
            [
              108.177561,
              15.959729
            ],
            [
              108.177789,
              15.959692
            ],
            [
              108.177795,
              15.959762
            ],
            [
              108.177585,
              15.959804
            ]
          ]
        ]
      }
    },
    {
      "type": "Feature",
      "properties": {
        "source": "vẽ tay từ ảnh vệ tinh – thôn Lệ Sơn Nam"
      },
      "geometry": {
        "type": "Polygon",
        "coordinates": [
          [
            [
              108.177587,
              15.959864
            ],
            [
              108.17758,
              15.959797
            ],
            [
              108.177797,
              15.959762
            ],
            [
              108.177811,
              15.959833
            ],
            [
              108.177587,
              15.959864
            ]
          ]
        ]
      }
    },
    {
      "type": "Feature",
      "properties": {
        "source": "vẽ tay từ ảnh vệ tinh – thôn Lệ Sơn Nam"
      },
      "geometry": {
        "type": "Polygon",
        "coordinates": [
          [
            [
              108.176943,
              15.957077
            ],
            [
              108.1769,
              15.956991
            ],
            [
              108.177078,
              15.956936
            ],
            [
              108.177121,
              15.957026
            ],
            [
              108.176943,
              15.957077
            ]
          ]
        ]
      }
    },
    {
      "type": "Feature",
      "properties": {
        "source": "vẽ tay từ ảnh vệ tinh – thôn Lệ Sơn Nam"
      },
      "geometry": {
        "type": "Polygon",
        "coordinates": [
          [
            [
              108.177018,
              15.957236
            ],
            [
              108.176995,
              15.957186
            ],
            [
              108.17714,
              15.957124
            ],
            [
              108.177178,
              15.957175
            ],
            [
              108.177018,
              15.957236
            ]
          ]
        ]
      }
    },
    {
      "type": "Feature",
      "properties": {
        "source": "vẽ tay từ ảnh vệ tinh – thôn Lệ Sơn Nam"
      },
      "geometry": {
        "type": "Polygon",
        "coordinates": [
          [
            [
              108.177062,
              15.957441
            ],
            [
              108.177034,
              15.95738
            ],
            [
              108.17727,
              15.957307
            ],
            [
              108.177297,
              15.957372
            ],
            [
              108.177062,
              15.957441
            ]
          ]
        ]
      }
    },
    {
      "type": "Feature",
      "properties": {
        "source": "vẽ tay từ ảnh vệ tinh – thôn Lệ Sơn Nam"
      },
      "geometry": {
        "type": "Polygon",
        "coordinates": [
          [
            [
              108.177343,
              15.957251
            ],
            [
              108.177322,
              15.957198
            ],
            [
              108.177537,
              15.957132
            ],
            [
              108.177541,
              15.957186
            ],
            [
              108.177343,
              15.957251
            ]
          ]
        ]
      }
    },
    {
      "type": "Feature",
      "properties": {
        "source": "vẽ tay từ ảnh vệ tinh – thôn Lệ Sơn Nam"
      },
      "geometry": {
        "type": "Polygon",
        "coordinates": [
          [
            [
              108.177438,
              15.95751
            ],
            [
              108.177427,
              15.957461
            ],
            [
              108.177597,
              15.957423
            ],
            [
              108.177607,
              15.957483
            ],
            [
              108.177438,
              15.95751
            ]
          ]
        ]
      }
    },
    {
      "type": "Feature",
      "properties": {
        "source": "vẽ tay từ ảnh vệ tinh – thôn Lệ Sơn Nam"
      },
      "geometry": {
        "type": "Polygon",
        "coordinates": [
          [
            [
              108.177167,
              15.960296
            ],
            [
              108.177107,
              15.9601
            ],
            [
              108.177182,
              15.960076
            ],
            [
              108.177234,
              15.960286
            ],
            [
              108.177167,
              15.960296
            ]
          ]
        ]
      }
    },
    {
      "type": "Feature",
      "properties": {
        "source": "vẽ tay từ ảnh vệ tinh – thôn Lệ Sơn Nam"
      },
      "geometry": {
        "type": "Polygon",
        "coordinates": [
          [
            [
              108.176861,
              15.960374
            ],
            [
              108.176806,
              15.960191
            ],
            [
              108.176858,
              15.960172
            ],
            [
              108.176911,
              15.960361
            ],
            [
              108.176861,
              15.960374
            ]
          ]
        ]
      }
    },
    {
      "type": "Feature",
      "properties": {
        "source": "vẽ tay từ ảnh vệ tinh – thôn Lệ Sơn Nam"
      },
      "geometry": {
        "type": "Polygon",
        "coordinates": [
          [
            [
              108.1766,
              15.960452
            ],
            [
              108.176538,
              15.960228
            ],
            [
              108.176585,
              15.960219
            ],
            [
              108.176651,
              15.960437
            ],
            [
              108.1766,
              15.960452
            ]
          ]
        ]
      }
    },
    {
      "type": "Feature",
      "properties": {
        "source": "vẽ tay từ ảnh vệ tinh – thôn Lệ Sơn Nam"
      },
      "geometry": {
        "type": "Polygon",
        "coordinates": [
          [
            [
              108.178425,
              15.959425
            ],
            [
              108.178422,
              15.959374
            ],
            [
              108.178579,
              15.959372
            ],
            [
              108.178588,
              15.959416
            ],
            [
              108.178425,
              15.959425
            ]
          ]
        ]
      }
    },
    {
      "type": "Feature",
      "properties": {
        "source": "vẽ tay từ ảnh vệ tinh – thôn Lệ Sơn Nam"
      },
      "geometry": {
        "type": "Polygon",
        "coordinates": [
          [
            [
              108.178381,
              15.959989
            ],
            [
              108.178379,
              15.959926
            ],
            [
              108.178666,
              15.959888
            ],
            [
              108.17867,
              15.959942
            ],
            [
              108.178381,
              15.959989
            ]
          ]
        ]
      }
    },
    {
      "type": "Feature",
      "properties": {
        "source": "vẽ tay từ ảnh vệ tinh – thôn Lệ Sơn Nam"
      },
      "geometry": {
        "type": "Polygon",
        "coordinates": [
          [
            [
              108.17765,
              15.958605
            ],
            [
              108.177635,
              15.958523
            ],
            [
              108.177904,
              15.958487
            ],
            [
              108.17793,
              15.958552
            ],
            [
              108.17765,
              15.958605
            ]
          ]
        ]
      }
    }
  ]
}