{"type": "FeatureCollection", "features": [{"type": "Feature", "properties": {"building": "yes", "source": "Bing", "@id": "way/428772499"}, "geometry": {"type": "Polygon", "coordinates": [[[108.1955408, 15.9530195], [108.1956308, 15.9529705], [108.1955112, 15.9527676], [108.1954213, 15.9528166], [108.1955408, 15.9530195]]]}}, {"type": "Feature", "properties": {"building": "house", "@id": "way/688527609"}, "geometry": {"type": "Polygon", "coordinates": [[[108.1901912, 15.9520705], [108.1900436, 15.9520511], [108.1900651, 15.951957], [108.1902113, 15.9519854], [108.1901912, 15.9520705]]]}}, {"type": "Feature", "properties": {"building": "house", "@id": "way/688527610"}, "geometry": {"type": "Polygon", "coordinates": [[[108.1895386, 15.9521203], [108.1893817, 15.9520468], [108.1894648, 15.9519269], [108.1895936, 15.951972], [108.1895386, 15.9521203]]]}}, {"type": "Feature", "properties": {"building": "house", "@id": "way/688527611"}, "geometry": {"type": "Polygon", "coordinates": [[[108.1903687, 15.9521126], [108.1904706, 15.9520842], [108.19048, 15.9521371], [108.1903714, 15.9521577], [108.1903687, 15.9521126]]]}}, {"type": "Feature", "properties": {"building": "house", "@id": "way/688527612"}, "geometry": {"type": "Polygon", "coordinates": [[[108.1903674, 15.9520558], [108.1903808, 15.9519604], [108.1905578, 15.9519591], [108.1905297, 15.9520649], [108.1903674, 15.9520558]]]}}, {"type": "Feature", "properties": {"building": "house", "@id": "way/688527613"}, "geometry": {"type": "Polygon", "coordinates": [[[108.1900951, 15.9525084], [108.1900026, 15.952542], [108.1899557, 15.9524517], [108.1900522, 15.9524169], [108.1900951, 15.9525084]]]}}, {"type": "Feature", "properties": {"building": "house", "@id": "way/688527614"}, "geometry": {"type": "Polygon", "coordinates": [[[108.1899476, 15.9523627], [108.1898739, 15.9522493], [108.1899945, 15.9521745], [108.1900656, 15.9522918], [108.1899476, 15.9523627]]]}}, {"type": "Feature", "properties": {"building": "house", "@id": "way/688527615"}, "geometry": {"type": "Polygon", "coordinates": [[[108.189552, 15.9523524], [108.1895118, 15.9522377], [108.1895815, 15.9522273], [108.1896204, 15.9523511], [108.189552, 15.9523524]]]}}, {"type": "Feature", "properties": {"building": "house", "@id": "way/688527616"}, "geometry": {"type": "Polygon", "coordinates": [[[108.1900093, 15.9527212], [108.1899999, 15.9526748], [108.1901769, 15.9526593], [108.190181, 15.9526967], [108.1900093, 15.9527212]]]}}, {"type": "Feature", "properties": {"building": "house", "@id": "way/688527617"}, "geometry": {"type": "Polygon", "coordinates": [[[108.1909226, 15.9520881], [108.1908958, 15.952021], [108.1909883, 15.9520043], [108.1910004, 15.9520726], [108.1909226, 15.9520881]]]}}, {"type": "Feature", "properties": {"building": "house", "@id": "way/688527618"}, "geometry": {"type": "Polygon", "coordinates": [[[108.1882766, 15.9546708], [108.1886146, 15.9545857], [108.1886414, 15.9546489], [108.1883115, 15.9547289], [108.1882766, 15.9546708]]]}}, {"type": "Feature", "properties": {"building": "yes", "@id": "way/688527619"}, "geometry": {"type": "Polygon", "coordinates": [[[108.1881921, 15.9546476], [108.1880982, 15.9543008], [108.188168, 15.9542956], [108.1882605, 15.9546438], [108.1881921, 15.9546476]]]}}, {"type": "Feature", "properties": {"building": "house", "@id": "way/688527620"}, "geometry": {"type": "Polygon", "coordinates": [[[108.1880868, 15.9542589], [108.1880546, 15.9542008], [108.1883859, 15.9540809], [108.1884141, 15.9541673], [108.1880868, 15.9542589]]]}}, {"type": "Feature", "properties": {"building": "house", "@id": "way/688528958"}, "geometry": {"type": "Polygon", "coordinates": [[[108.1904893, 15.9537334], [108.1905423, 15.9537139], [108.1905777, 15.9537862], [108.190499, 15.9537938], [108.1904893, 15.9537334]]]}}, {"type": "Feature", "properties": {"building": "house", "@id": "way/688528960"}, "geometry": {"type": "Polygon", "coordinates": [[[108.1933561, 15.9612374], [108.1932875, 15.9613238], [108.1934344, 15.9614045], [108.1934893, 15.9613458], [108.1933561, 15.9612374]]]}}, {"type": "Feature", "properties": {"building": "house", "@id": "way/688528961"}, "geometry": {"type": "Polygon", "coordinates": [[[108.1928891, 15.9611777], [108.1929567, 15.9611802], [108.1929379, 15.961276], [108.1928754, 15.9612667], [108.1928891, 15.9611777]]]}}, {"type": "Feature", "properties": {"building": "house", "@id": "way/688528963"}, "geometry": {"type": "Polygon", "coordinates": [[[108.1924233, 15.9598952], [108.1923986, 15.9597959], [108.1924556, 15.9597826], [108.1924865, 15.95987], [108.1924233, 15.9598952]]]}}, {"type": "Feature", "properties": {"building": "yes", "@id": "way/688528964"}, "geometry": {"type": "Polygon", "coordinates": [[[108.1915637, 15.9605246], [108.191824, 15.9604343], [108.1918302, 15.9604698], [108.1915806, 15.9605558], [108.1915637, 15.9605246]]]}}, {"type": "Feature", "properties": {"building": "house", "@id": "way/688528965"}, "geometry": {"type": "Polygon", "coordinates": [[[108.1915344, 15.9602951], [108.1914974, 15.9602343], [108.1916623, 15.960181], [108.19167, 15.9602329], [108.1915344, 15.9602951]]]}}, {"type": "Feature", "properties": {"building": "house", "@id": "way/688528967"}, "geometry": {"type": "Polygon", "coordinates": [[[108.1913757, 15.9604861], [108.1913403, 15.9603484], [108.1914897, 15.9603158], [108.1915591, 15.9605069], [108.1913757, 15.9604861]]]}}, {"type": "Feature", "properties": {"building": "house", "@id": "way/688528968"}, "geometry": {"type": "Polygon", "coordinates": [[[108.1919134, 15.9603439], [108.191861, 15.9603069], [108.1919781, 15.9602521], [108.1920366, 15.9602788], [108.1919134, 15.9603439]]]}}, {"type": "Feature", "properties": {"building": "house", "@id": "way/688528970"}, "geometry": {"type": "Polygon", "coordinates": [[[108.1912633, 15.9592997], [108.1912633, 15.9592124], [108.1913126, 15.9592168], [108.1913388, 15.9592849], [108.1912633, 15.9592997]]]}}, {"type": "Feature", "properties": {"building": "house", "@id": "way/688528971"}, "geometry": {"type": "Polygon", "coordinates": [[[108.1912432, 15.9600951], [108.1911601, 15.9599085], [108.1913757, 15.9598374], [108.1914528, 15.9600285], [108.1912432, 15.9600951]]]}}, {"type": "Feature", "properties": {"building": "yes", "@id": "way/688528972"}, "geometry": {"type": "Polygon", "coordinates": [[[108.190453, 15.9600433], [108.1903744, 15.9598107], [108.1904899, 15.9597189], [108.1905577, 15.9600077], [108.190453, 15.9600433]]]}}, {"type": "Feature", "properties": {"building": "house", "@id": "way/688528974"}, "geometry": {"type": "Polygon", "coordinates": [[[108.1901864, 15.9597263], [108.1901572, 15.9596374], [108.1901033, 15.9596463], [108.1901248, 15.9597411], [108.1901864, 15.9597263]]]}}, {"type": "Feature", "properties": {"building": "house", "@id": "way/688528975"}, "geometry": {"type": "Polygon", "coordinates": [[[108.1888149, 15.9583494], [108.1888718, 15.958281], [108.1888088, 15.9582477], [108.1887539, 15.9582946], [108.1888149, 15.9583494]]]}}, {"type": "Feature", "properties": {"building": "house", "@id": "way/688528977"}, "geometry": {"type": "Polygon", "coordinates": [[[108.1894064, 15.9575578], [108.18938, 15.9575011], [108.189569, 15.957464], [108.189567, 15.9575187], [108.1894064, 15.9575578]]]}}, {"type": "Feature", "properties": {"building": "house", "@id": "way/688528978"}, "geometry": {"type": "Polygon", "coordinates": [[[108.1894247, 15.9578783], [108.1894999, 15.9578314], [108.1894979, 15.9577415], [108.1892723, 15.9577943], [108.1894247, 15.9578783]]]}}, {"type": "Feature", "properties": {"building": "house", "@id": "way/688528980"}, "geometry": {"type": "Polygon", "coordinates": [[[108.1895629, 15.958109], [108.1896443, 15.9580757], [108.1896565, 15.9581383], [108.1895873, 15.9581774], [108.1895629, 15.958109]]]}}, {"type": "Feature", "properties": {"building": "house", "@id": "way/688528981"}, "geometry": {"type": "Polygon", "coordinates": [[[108.1862584, 15.9563747], [108.18634, 15.9563983], [108.1863202, 15.9564617], [108.1862386, 15.9564381], [108.1862584, 15.9563747]]]}}, {"type": "Feature", "properties": {"building": "house", "@id": "way/688528982"}, "geometry": {"type": "Polygon", "coordinates": [[[108.1864447, 15.9566881], [108.1864956, 15.9565884], [108.1863756, 15.9565572], [108.1863573, 15.9566197], [108.1864447, 15.9566881]]]}}, {"type": "Feature", "properties": {"building": "house", "@id": "way/688528984"}, "geometry": {"type": "Polygon", "coordinates": [[[108.186711, 15.956694], [108.1867842, 15.9566998], [108.1868045, 15.9565982], [108.1867131, 15.9566197], [108.186711, 15.956694]]]}}, {"type": "Feature", "properties": {"building": "house", "@id": "way/688530604"}, "geometry": {"type": "Polygon", "coordinates": [[[108.1936333, 15.9612737], [108.193698, 15.9611908], [108.1937373, 15.9612208], [108.1936707, 15.9613], [108.1936333, 15.9612737]]]}}, {"type": "Feature", "properties": {"building": "house", "@id": "way/688530605"}, "geometry": {"type": "Polygon", "coordinates": [[[108.1941169, 15.9603729], [108.1940868, 15.9603108], [108.1941461, 15.9602836], [108.194193, 15.960335], [108.1941169, 15.9603729]]]}}, {"type": "Feature", "properties": {"building": "house", "@id": "way/688530606"}, "geometry": {"type": "Polygon", "coordinates": [[[108.1943111, 15.960526], [108.1942682, 15.9604733], [108.194397, 15.9603852], [108.1944275, 15.9604367], [108.1943111, 15.960526]]]}}, {"type": "Feature", "properties": {"building": "house", "@id": "way/688530607"}, "geometry": {"type": "Polygon", "coordinates": [[[108.194982, 15.9610476], [108.1949758, 15.9609128], [108.1950421, 15.9609107], [108.1950408, 15.9610442], [108.194982, 15.9610476]]]}}, {"type": "Feature", "properties": {"building": "house", "@id": "way/688530608"}, "geometry": {"type": "Polygon", "coordinates": [[[108.1960702, 15.9545549], [108.1960212, 15.954513], [108.1960685, 15.9544601], [108.1961201, 15.9545036], [108.1960702, 15.9545549]]]}}, {"type": "Feature", "properties": {"building": "house", "@id": "way/688530609"}, "geometry": {"type": "Polygon", "coordinates": [[[108.1959127, 15.955155], [108.1960197, 15.955215], [108.1960644, 15.9551606], [108.1959542, 15.9551014], [108.1959127, 15.955155]]]}}, {"type": "Feature", "properties": {"building": "house", "@id": "way/688530610"}, "geometry": {"type": "Polygon", "coordinates": [[[108.1960795, 15.9553884], [108.1960536, 15.9553503], [108.1961512, 15.9553093], [108.1961746, 15.9553552], [108.1960795, 15.9553884]]]}}, {"type": "Feature", "properties": {"building": "house", "@id": "way/688530611"}, "geometry": {"type": "Polygon", "coordinates": [[[108.1961944, 15.9555301], [108.1961542, 15.9554847], [108.1961817, 15.9554558], [108.19623, 15.9555018], [108.1961944, 15.9555301]]]}}, {"type": "Feature", "properties": {"building": "house", "@id": "way/688530612"}, "geometry": {"type": "Polygon", "coordinates": [[[108.1962166, 15.9554735], [108.1961723, 15.9554361], [108.196222, 15.9553813], [108.1962701, 15.9554216], [108.1962166, 15.9554735]]]}}, {"type": "Feature", "properties": {"building": "house", "@id": "way/688530613"}, "geometry": {"type": "Polygon", "coordinates": [[[108.1962412, 15.9554972], [108.1962201, 15.9554749], [108.1962647, 15.955432], [108.1962798, 15.9554579], [108.1962412, 15.9554972]]]}}, {"type": "Feature", "properties": {"building": "house", "@id": "way/688530614"}, "geometry": {"type": "Polygon", "coordinates": [[[108.1961168, 15.9555146], [108.1960933, 15.9554961], [108.1961207, 15.9554724], [108.196091, 15.9554513], [108.1961295, 15.9554172], [108.1961742, 15.9554568], [108.1961168, 15.9555146]]]}}, {"type": "Feature", "properties": {"building": "house", "@id": "way/688530615"}, "geometry": {"type": "Polygon", "coordinates": [[[108.1956617, 15.9558686], [108.1958152, 15.9558486], [108.1957944, 15.9557423], [108.1956502, 15.9557657], [108.1956617, 15.9558686]]]}}, {"type": "Feature", "properties": {"building": "house", "@id": "way/688530616"}, "geometry": {"type": "Polygon", "coordinates": [[[108.1961258, 15.9570569], [108.1960855, 15.9569183], [108.1961787, 15.9568963], [108.1962096, 15.9570362], [108.1961258, 15.9570569]]]}}, {"type": "Feature", "properties": {"building": "house", "@id": "way/688530617"}, "geometry": {"type": "Polygon", "coordinates": [[[108.1949674, 15.9579865], [108.1950514, 15.9580299], [108.1950952, 15.9579551], [108.1950147, 15.9579206], [108.1949674, 15.9579865]]]}}, {"type": "Feature", "properties": {"building": "house", "@id": "way/688530618"}, "geometry": {"type": "Polygon", "coordinates": [[[108.1954089, 15.9580104], [108.1954952, 15.9581099], [108.1955425, 15.9580788], [108.1954465, 15.957987], [108.1954089, 15.9580104]]]}}, {"type": "Feature", "properties": {"building": "house", "@id": "way/688530619"}, "geometry": {"type": "Polygon", "coordinates": [[[108.1982308, 15.9585697], [108.1983281, 15.9586918], [108.1984131, 15.9586399], [108.1983144, 15.9585089], [108.1982308, 15.9585697]]]}}, {"type": "Feature", "properties": {"building": "house", "@id": "way/688534763"}, "geometry": {"type": "Polygon", "coordinates": [[[108.1722474, 15.9607259], [108.1722551, 15.9603393], [108.1725955, 15.9602993], [108.1725863, 15.9607199], [108.1722474, 15.9607422], [108.1722474, 15.9607259]]]}}, {"type": "Feature", "properties": {"building": "yes", "@id": "way/920544326"}, "geometry": {"type": "Polygon", "coordinates": [[[108.1884824, 15.9558333], [108.1884451, 15.9557345], [108.1887439, 15.9556537], [108.1887813, 15.9557615], [108.1884824, 15.9558333]]]}}, {"type": "Feature", "properties": {"building": "yes", "@id": "way/920544327"}, "geometry": {"type": "Polygon", "coordinates": [[[108.188347, 15.9553484], [108.1885431, 15.955281], [108.1884871, 15.9550969], [108.1883797, 15.9551418], [108.188417, 15.9552451], [108.1883236, 15.9552765], [108.188347, 15.9553484]]]}}, {"type": "Feature", "properties": {"building": "yes", "@id": "way/920544328"}, "geometry": {"type": "Polygon", "coordinates": [[[108.1845176, 15.9549487], [108.1845596, 15.9548545], [108.1843401, 15.9547961], [108.1843168, 15.9548814], [108.1845176, 15.9549487]]]}}, {"type": "Feature", "properties": {"building": "yes", "@id": "way/920552348"}, "geometry": {"type": "Polygon", "coordinates": [[[108.1842794, 15.9553349], [108.1842934, 15.9552226], [108.1844662, 15.9552541], [108.1844055, 15.9553439], [108.1842794, 15.9553349]]]}}, {"type": "Feature", "properties": {"building": "yes", "@id": "way/920552349"}, "geometry": {"type": "Polygon", "coordinates": [[[108.1857131, 15.9555504], [108.1857131, 15.9554561], [108.1859046, 15.9554561], [108.1858999, 15.955528], [108.1857131, 15.9555504]]]}}, {"type": "Feature", "properties": {"building": "yes", "@id": "way/920552350"}, "geometry": {"type": "Polygon", "coordinates": [[[108.186082, 15.9549487], [108.186068, 15.954841], [108.1862502, 15.954832], [108.1862642, 15.9549083], [108.186082, 15.9549487]]]}}, {"type": "Feature", "properties": {"building": "yes", "@id": "way/920552351"}, "geometry": {"type": "Polygon", "coordinates": [[[108.1836863, 15.9541675], [108.183747, 15.9541405], [108.183635, 15.9539834], [108.1836023, 15.9540148], [108.1836863, 15.9541675]]]}}, {"type": "Feature", "properties": {"building": "yes", "@id": "way/920552352"}, "geometry": {"type": "Polygon", "coordinates": [[[108.1899768, 15.9569917], [108.1899114, 15.9568301], [108.1897994, 15.9568929], [108.1898647, 15.9570321], [108.1899768, 15.9569917]]]}}, {"type": "Feature", "properties": {"building": "yes", "@id": "way/920552353"}, "geometry": {"type": "Polygon", "coordinates": [[[108.1912144, 15.9583073], [108.1913825, 15.9581861], [108.1912938, 15.9580828], [108.1911256, 15.9581726], [108.1912144, 15.9583073]]]}}, {"type": "Feature", "properties": {"building": "yes", "@id": "way/920552354"}, "geometry": {"type": "Polygon", "coordinates": [[[108.1915039, 15.9586351], [108.1915319, 15.9585408], [108.1916066, 15.9585722], [108.1916393, 15.9585228], [108.1917, 15.9585588], [108.1916393, 15.9586665], [108.1915039, 15.9586351]]]}}, {"type": "Feature", "properties": {"building": "yes", "@id": "way/920552355"}, "geometry": {"type": "Polygon", "coordinates": [[[108.1898215, 15.9563137], [108.1897608, 15.95617], [108.1899056, 15.9561184], [108.1899663, 15.9562621], [108.1898215, 15.9563137]]]}}, {"type": "Feature", "properties": {"building": "yes", "@id": "way/920552356"}, "geometry": {"type": "Polygon", "coordinates": [[[108.1893708, 15.9563743], [108.1893498, 15.956316], [108.1896113, 15.9562217], [108.189637, 15.9563025], [108.1893708, 15.9563743]]]}}, {"type": "Feature", "properties": {"building": "yes", "@id": "way/1457812531"}, "geometry": {"type": "Polygon", "coordinates": [[[108.1813887, 15.9688591], [108.1807919, 15.9688836], [108.1807825, 15.9687973], [108.1813847, 15.9687599], [108.1813887, 15.9688591]]]}}, {"type": "Feature", "properties": {"building": "yes", "@id": "way/1457812532"}, "geometry": {"type": "Polygon", "coordinates": [[[108.180741, 15.9688901], [108.1805653, 15.9689081], [108.1805827, 15.9690474], [108.1804768, 15.9690513], [108.1804567, 15.9688166], [108.1804732, 15.9688161], [108.1807262, 15.9688089], [108.180741, 15.9688901]]]}}, {"type": "Feature", "properties": {"building": "yes", "@id": "way/1457812533"}, "geometry": {"type": "Polygon", "coordinates": [[[108.1804732, 15.9688161], [108.1804084, 15.9682338], [108.1804915, 15.9682209], [108.1805599, 15.9687934], [108.1804732, 15.9688161]]]}}, {"type": "Feature", "properties": {"building": "yes", "@id": "way/1457812534"}, "geometry": {"type": "Polygon", "coordinates": [[[108.1805277, 15.9682364], [108.1812157, 15.9681758], [108.1811996, 15.9680933], [108.1805157, 15.9681345], [108.1805277, 15.9682364]]]}}]}