{"type": "FeatureCollection", "features": [{"type": "Feature", "properties": {"building": "house", "@id": "way/688528960"}, "geometry": {"type": "Polygon", "coordinates": [[[108.1933561, 15.9612374], [108.1932875, 15.9613238], [108.1934344, 15.9614045], [108.1934893, 15.9613458], [108.1933561, 15.9612374]]]}}, {"type": "Feature", "properties": {"building": "house", "@id": "way/688528961"}, "geometry": {"type": "Polygon", "coordinates": [[[108.1928891, 15.9611777], [108.1929567, 15.9611802], [108.1929379, 15.961276], [108.1928754, 15.9612667], [108.1928891, 15.9611777]]]}}, {"type": "Feature", "properties": {"building": "house", "@id": "way/688528963"}, "geometry": {"type": "Polygon", "coordinates": [[[108.1924233, 15.9598952], [108.1923986, 15.9597959], [108.1924556, 15.9597826], [108.1924865, 15.95987], [108.1924233, 15.9598952]]]}}, {"type": "Feature", "properties": {"building": "yes", "@id": "way/688528964"}, "geometry": {"type": "Polygon", "coordinates": [[[108.1915637, 15.9605246], [108.191824, 15.9604343], [108.1918302, 15.9604698], [108.1915806, 15.9605558], [108.1915637, 15.9605246]]]}}, {"type": "Feature", "properties": {"building": "house", "@id": "way/688528965"}, "geometry": {"type": "Polygon", "coordinates": [[[108.1915344, 15.9602951], [108.1914974, 15.9602343], [108.1916623, 15.960181], [108.19167, 15.9602329], [108.1915344, 15.9602951]]]}}, {"type": "Feature", "properties": {"building": "house", "@id": "way/688528967"}, "geometry": {"type": "Polygon", "coordinates": [[[108.1913757, 15.9604861], [108.1913403, 15.9603484], [108.1914897, 15.9603158], [108.1915591, 15.9605069], [108.1913757, 15.9604861]]]}}, {"type": "Feature", "properties": {"building": "house", "@id": "way/688528968"}, "geometry": {"type": "Polygon", "coordinates": [[[108.1919134, 15.9603439], [108.191861, 15.9603069], [108.1919781, 15.9602521], [108.1920366, 15.9602788], [108.1919134, 15.9603439]]]}}, {"type": "Feature", "properties": {"building": "house", "@id": "way/688528970"}, "geometry": {"type": "Polygon", "coordinates": [[[108.1912633, 15.9592997], [108.1912633, 15.9592124], [108.1913126, 15.9592168], [108.1913388, 15.9592849], [108.1912633, 15.9592997]]]}}, {"type": "Feature", "properties": {"building": "house", "@id": "way/688528971"}, "geometry": {"type": "Polygon", "coordinates": [[[108.1912432, 15.9600951], [108.1911601, 15.9599085], [108.1913757, 15.9598374], [108.1914528, 15.9600285], [108.1912432, 15.9600951]]]}}, {"type": "Feature", "properties": {"building": "yes", "@id": "way/688528972"}, "geometry": {"type": "Polygon", "coordinates": [[[108.190453, 15.9600433], [108.1903744, 15.9598107], [108.1904899, 15.9597189], [108.1905577, 15.9600077], [108.190453, 15.9600433]]]}}, {"type": "Feature", "properties": {"building": "house", "@id": "way/688528974"}, "geometry": {"type": "Polygon", "coordinates": [[[108.1901864, 15.9597263], [108.1901572, 15.9596374], [108.1901033, 15.9596463], [108.1901248, 15.9597411], [108.1901864, 15.9597263]]]}}, {"type": "Feature", "properties": {"building": "house", "@id": "way/688528975"}, "geometry": {"type": "Polygon", "coordinates": [[[108.1888149, 15.9583494], [108.1888718, 15.958281], [108.1888088, 15.9582477], [108.1887539, 15.9582946], [108.1888149, 15.9583494]]]}}, {"type": "Feature", "properties": {"building": "house", "@id": "way/688528977"}, "geometry": {"type": "Polygon", "coordinates": [[[108.1894064, 15.9575578], [108.18938, 15.9575011], [108.189569, 15.957464], [108.189567, 15.9575187], [108.1894064, 15.9575578]]]}}, {"type": "Feature", "properties": {"building": "house", "@id": "way/688528978"}, "geometry": {"type": "Polygon", "coordinates": [[[108.1894247, 15.9578783], [108.1894999, 15.9578314], [108.1894979, 15.9577415], [108.1892723, 15.9577943], [108.1894247, 15.9578783]]]}}, {"type": "Feature", "properties": {"building": "house", "@id": "way/688528980"}, "geometry": {"type": "Polygon", "coordinates": [[[108.1895629, 15.958109], [108.1896443, 15.9580757], [108.1896565, 15.9581383], [108.1895873, 15.9581774], [108.1895629, 15.958109]]]}}, {"type": "Feature", "properties": {"building": "house", "@id": "way/688528981"}, "geometry": {"type": "Polygon", "coordinates": [[[108.1862584, 15.9563747], [108.18634, 15.9563983], [108.1863202, 15.9564617], [108.1862386, 15.9564381], [108.1862584, 15.9563747]]]}}, {"type": "Feature", "properties": {"building": "house", "@id": "way/688528982"}, "geometry": {"type": "Polygon", "coordinates": [[[108.1864447, 15.9566881], [108.1864956, 15.9565884], [108.1863756, 15.9565572], [108.1863573, 15.9566197], [108.1864447, 15.9566881]]]}}, {"type": "Feature", "properties": {"building": "house", "@id": "way/688528984"}, "geometry": {"type": "Polygon", "coordinates": [[[108.186711, 15.956694], [108.1867842, 15.9566998], [108.1868045, 15.9565982], [108.1867131, 15.9566197], [108.186711, 15.956694]]]}}, {"type": "Feature", "properties": {"building": "house", "@id": "way/688530604"}, "geometry": {"type": "Polygon", "coordinates": [[[108.1936333, 15.9612737], [108.193698, 15.9611908], [108.1937373, 15.9612208], [108.1936707, 15.9613], [108.1936333, 15.9612737]]]}}, {"type": "Feature", "properties": {"building": "house", "@id": "way/688530605"}, "geometry": {"type": "Polygon", "coordinates": [[[108.1941169, 15.9603729], [108.1940868, 15.9603108], [108.1941461, 15.9602836], [108.194193, 15.960335], [108.1941169, 15.9603729]]]}}, {"type": "Feature", "properties": {"building": "house", "@id": "way/688530606"}, "geometry": {"type": "Polygon", "coordinates": [[[108.1943111, 15.960526], [108.1942682, 15.9604733], [108.194397, 15.9603852], [108.1944275, 15.9604367], [108.1943111, 15.960526]]]}}, {"type": "Feature", "properties": {"building": "house", "@id": "way/688530607"}, "geometry": {"type": "Polygon", "coordinates": [[[108.194982, 15.9610476], [108.1949758, 15.9609128], [108.1950421, 15.9609107], [108.1950408, 15.9610442], [108.194982, 15.9610476]]]}}, {"type": "Feature", "properties": {"building": "house", "@id": "way/688530609"}, "geometry": {"type": "Polygon", "coordinates": [[[108.1959127, 15.955155], [108.1960197, 15.955215], [108.1960644, 15.9551606], [108.1959542, 15.9551014], [108.1959127, 15.955155]]]}}, {"type": "Feature", "properties": {"building": "house", "@id": "way/688530610"}, "geometry": {"type": "Polygon", "coordinates": [[[108.1960795, 15.9553884], [108.1960536, 15.9553503], [108.1961512, 15.9553093], [108.1961746, 15.9553552], [108.1960795, 15.9553884]]]}}, {"type": "Feature", "properties": {"building": "house", "@id": "way/688530611"}, "geometry": {"type": "Polygon", "coordinates": [[[108.1961944, 15.9555301], [108.1961542, 15.9554847], [108.1961817, 15.9554558], [108.19623, 15.9555018], [108.1961944, 15.9555301]]]}}, {"type": "Feature", "properties": {"building": "house", "@id": "way/688530612"}, "geometry": {"type": "Polygon", "coordinates": [[[108.1962166, 15.9554735], [108.1961723, 15.9554361], [108.196222, 15.9553813], [108.1962701, 15.9554216], [108.1962166, 15.9554735]]]}}, {"type": "Feature", "properties": {"building": "house", "@id": "way/688530613"}, "geometry": {"type": "Polygon", "coordinates": [[[108.1962412, 15.9554972], [108.1962201, 15.9554749], [108.1962647, 15.955432], [108.1962798, 15.9554579], [108.1962412, 15.9554972]]]}}, {"type": "Feature", "properties": {"building": "house", "@id": "way/688530614"}, "geometry": {"type": "Polygon", "coordinates": [[[108.1961168, 15.9555146], [108.1960933, 15.9554961], [108.1961207, 15.9554724], [108.196091, 15.9554513], [108.1961295, 15.9554172], [108.1961742, 15.9554568], [108.1961168, 15.9555146]]]}}, {"type": "Feature", "properties": {"building": "house", "@id": "way/688530615"}, "geometry": {"type": "Polygon", "coordinates": [[[108.1956617, 15.9558686], [108.1958152, 15.9558486], [108.1957944, 15.9557423], [108.1956502, 15.9557657], [108.1956617, 15.9558686]]]}}, {"type": "Feature", "properties": {"building": "house", "@id": "way/688530616"}, "geometry": {"type": "Polygon", "coordinates": [[[108.1961258, 15.9570569], [108.1960855, 15.9569183], [108.1961787, 15.9568963], [108.1962096, 15.9570362], [108.1961258, 15.9570569]]]}}, {"type": "Feature", "properties": {"building": "house", "@id": "way/688530617"}, "geometry": {"type": "Polygon", "coordinates": [[[108.1949674, 15.9579865], [108.1950514, 15.9580299], [108.1950952, 15.9579551], [108.1950147, 15.9579206], [108.1949674, 15.9579865]]]}}, {"type": "Feature", "properties": {"building": "house", "@id": "way/688530618"}, "geometry": {"type": "Polygon", "coordinates": [[[108.1954089, 15.9580104], [108.1954952, 15.9581099], [108.1955425, 15.9580788], [108.1954465, 15.957987], [108.1954089, 15.9580104]]]}}, {"type": "Feature", "properties": {"building": "yes", "@id": "way/920544326"}, "geometry": {"type": "Polygon", "coordinates": [[[108.1884824, 15.9558333], [108.1884451, 15.9557345], [108.1887439, 15.9556537], [108.1887813, 15.9557615], [108.1884824, 15.9558333]]]}}, {"type": "Feature", "properties": {"building": "yes", "@id": "way/920544327"}, "geometry": {"type": "Polygon", "coordinates": [[[108.188347, 15.9553484], [108.1885431, 15.955281], [108.1884871, 15.9550969], [108.1883797, 15.9551418], [108.188417, 15.9552451], [108.1883236, 15.9552765], [108.188347, 15.9553484]]]}}, {"type": "Feature", "properties": {"building": "yes", "@id": "way/920552348"}, "geometry": {"type": "Polygon", "coordinates": [[[108.1842794, 15.9553349], [108.1842934, 15.9552226], [108.1844662, 15.9552541], [108.1844055, 15.9553439], [108.1842794, 15.9553349]]]}}, {"type": "Feature", "properties": {"building": "yes", "@id": "way/920552349"}, "geometry": {"type": "Polygon", "coordinates": [[[108.1857131, 15.9555504], [108.1857131, 15.9554561], [108.1859046, 15.9554561], [108.1858999, 15.955528], [108.1857131, 15.9555504]]]}}, {"type": "Feature", "properties": {"building": "yes", "@id": "way/920552352"}, "geometry": {"type": "Polygon", "coordinates": [[[108.1899768, 15.9569917], [108.1899114, 15.9568301], [108.1897994, 15.9568929], [108.1898647, 15.9570321], [108.1899768, 15.9569917]]]}}, {"type": "Feature", "properties": {"building": "yes", "@id": "way/920552353"}, "geometry": {"type": "Polygon", "coordinates": [[[108.1912144, 15.9583073], [108.1913825, 15.9581861], [108.1912938, 15.9580828], [108.1911256, 15.9581726], [108.1912144, 15.9583073]]]}}, {"type": "Feature", "properties": {"building": "yes", "@id": "way/920552354"}, "geometry": {"type": "Polygon", "coordinates": [[[108.1915039, 15.9586351], [108.1915319, 15.9585408], [108.1916066, 15.9585722], [108.1916393, 15.9585228], [108.1917, 15.9585588], [108.1916393, 15.9586665], [108.1915039, 15.9586351]]]}}, {"type": "Feature", "properties": {"building": "yes", "@id": "way/920552355"}, "geometry": {"type": "Polygon", "coordinates": [[[108.1898215, 15.9563137], [108.1897608, 15.95617], [108.1899056, 15.9561184], [108.1899663, 15.9562621], [108.1898215, 15.9563137]]]}}, {"type": "Feature", "properties": {"building": "yes", "@id": "way/920552356"}, "geometry": {"type": "Polygon", "coordinates": [[[108.1893708, 15.9563743], [108.1893498, 15.956316], [108.1896113, 15.9562217], [108.189637, 15.9563025], [108.1893708, 15.9563743]]]}}]}