{"type": "FeatureCollection", "features": [{"type": "Feature", "properties": {"bus": "yes", "highway": "bus_stop", "name": "Ki\u1ec7t 12 Th\u00f4n L\u1ec7 S\u01a1n B\u1eafc", "public_transport": "platform", "@id": "node/11900103138"}, "geometry": {"type": "Point", "coordinates": [108.1793436, 15.9626871]}}, {"type": "Feature", "properties": {"bus": "yes", "highway": "bus_stop", "name": "\u0110\u1ed1i di\u1ec7n Nh\u00e0 thu\u1ed1c s\u1ed1 1 th\u00f4n L\u1ec7 S\u01a1n B\u1eafc", "public_transport": "platform", "@id": "node/11900103139"}, "geometry": {"type": "Point", "coordinates": [108.1797525, 15.9595834]}}, {"type": "Feature", "properties": {"bus": "yes", "highway": "bus_stop", "name": "Nh\u00e0 thu\u1ed1c s\u1ed1 1 th\u00f4n L\u1ec7 S\u01a1n B\u1eafc", "public_transport": "platform", "@id": "node/11900103141"}, "geometry": {"type": "Point", "coordinates": [108.1799266, 15.9597711]}}, {"type": "Feature", "properties": {"bus": "yes", "highway": "bus_stop", "name": "\u0110\u1ed1i di\u1ec7n Ki\u1ec7t 12 Th\u00f4n L\u1ec7 S\u01a1n B\u1eafc", "public_transport": "platform", "@id": "node/11900103142"}, "geometry": {"type": "Point", "coordinates": [108.1795548, 15.9625616]}}, {"type": "Feature", "properties": {"amenity": "pharmacy", "healthcare": "pharmacy", "@id": "node/14030318801"}, "geometry": {"type": "Point", "coordinates": [108.1798534, 15.9605973]}}, {"type": "Feature", "properties": {"amenity": "pharmacy", "healthcare": "pharmacy", "@id": "node/14030318810"}, "geometry": {"type": "Point", "coordinates": [108.179788, 15.9645174]}}, {"type": "Feature", "properties": {"amenity": "restaurant", "@id": "node/14030318811"}, "geometry": {"type": "Point", "coordinates": [108.1806283, 15.9655373]}}, {"type": "Feature", "properties": {"amenity": "restaurant", "@id": "node/14030318915"}, "geometry": {"type": "Point", "coordinates": [108.1796051, 15.9584213]}}, {"type": "Feature", "properties": {"amenity": "restaurant", "@id": "node/14030319303"}, "geometry": {"type": "Point", "coordinates": [108.1926778, 15.9658096]}}, {"type": "Feature", "properties": {"amenity": "restaurant", "@id": "node/14030319705"}, "geometry": {"type": "Point", "coordinates": [108.1796493, 15.9619822]}}]}