{"type": "FeatureCollection", "features": [{"type": "Feature", "properties": {"name": "Ph\u1ea1m vi \u01b0\u1edbc t\u00ednh khu d\u00e2n c\u01b0 L\u1ec7 S\u01a1n (B\u1eafc+Nam)", "note": "Convex hull c\u00e1c nh\u00e0 OSM + m\u1ed1c Ki\u1ec7t 1"}, "geometry": {"type": "Polygon", "coordinates": [[[108.1959727, 15.9551574], [108.1884064, 15.9552483], [108.1843448, 15.9552981], [108.1828, 15.961], [108.1933847, 15.9613098], [108.1950045, 15.9609926], [108.1961451, 15.9569929], [108.1962494, 15.9554718], [108.1962195, 15.9554372], [108.1959727, 15.9551574]]]}}]}